STARLINK-35629          
1 66127U 25237P   25310.91668981 -.00372858  00000+0 -26511-2 0  9991
2 66127  53.1598 257.5814 0001173 101.5688 316.4893 15.74228408  3725
STARLINK-35612          
1 66128U 25237Q   25310.91668981 -.00275084  00000+0 -19373-2 0  9993
2 66128  53.1601 257.5770 0001155  83.9245 336.0481 15.74171349  3726
STARLINK-35632          
1 66129U 25237R   25310.91668981 -.00291767  00000+0 -20580-2 0  9992
2 66129  53.1600 257.5730 0001254  96.5873 325.2989 15.74182285  3723
STARLINK-35637          
1 66130U 25237S   25310.91668981 -.00261066  00000+0 -18365-2 0  9991
2 66130  53.1601 257.5684 0001564  50.4288  13.3928 15.74154720  3728
STARLINK-35630          
1 66131U 25237T   25310.91668981 -.00285505  00000+0 -20127-2 0  9995
2 66131  53.1600 257.5645 0001363  54.9724  10.7527 15.74177099  3726
STARLINK-34412          
1 66132U 25237U   25310.91668981 -.00312338  00000+0 -22090-2 0  9992
2 66132  53.1599 257.5610 0001973  70.6346 357.0332 15.74176248  3634
STARLINK-35520          
1 66133U 25237V   25310.91668981 -.00286159  00000+0 -20178-2 0  9999
2 66133  53.1600 257.5564 0001353 100.2197 329.3476 15.74173767  3726
STARLINK-35525          
1 66134U 25237W   25310.91668981 -.00260058  00000+0 -18294-2 0  9996
2 66134  53.1602 257.5525 0001962 139.4379 292.0580 15.74150366  3720
STARLINK-34852          
1 66135U 25237X   25310.91668981 -.00262896  00000+0 -18494-2 0  9991
2 66135  53.1602 257.5488 0001512  49.8181  23.5794 15.74159337  3681
STARLINK-35592          
1 66136U 25237Y   25310.91668981 -.00283446  00000+0 -19979-2 0  9995
2 66136  53.1601 257.5442 0001262 100.5267 334.7863 15.74175172  3727
STARLINK-35576          
1 66137U 25237Z   25310.91668981 -.00300468  00000+0 -21210-2 0  9991
2 66137  53.1601 257.5401 0001450 110.6786 326.5405 15.74189583  3722
STARLINK-35623          
1 66138U 25237AA  25310.91668981 -.00248380  00000+0 -17449-2 0  9995
2 66138  53.1602 257.5367 0001540  57.8940  21.2596 15.74148137  3729
