CCSDS_OMM_VERS = 2.0
CREATION_DATE  = 
ORIGINATOR     = 

OBJECT_NAME    = STARLINK-35629
OBJECT_ID      = 2025-237P
CENTER_NAME    = EARTH
REF_FRAME      = TEME
TIME_SYSTEM    = UTC
MEAN_ELEMENT_THEORY = SGP/SGP4

EPOCH          = 2025-11-06T22:00:01.999584
MEAN_MOTION    = 15.74228408
ECCENTRICITY   = .00011734
INCLINATION    = 53.1598
RA_OF_ASC_NODE = 257.5814
ARG_OF_PERICENTER = 101.5688
MEAN_ANOMALY   = 316.4893

EPHEMERIS_TYPE = 0
CLASSIFICATION_TYPE = U
NORAD_CAT_ID   = 66127
ELEMENT_SET_NO = 999
REV_AT_EPOCH   = 372
BSTAR          = -.26510899E-2
MEAN_MOTION_DOT = -.372858E-2
MEAN_MOTION_DDOT = 0

CCSDS_OMM_VERS = 2.0
CREATION_DATE  = 
ORIGINATOR     = 

OBJECT_NAME    = STARLINK-35612
OBJECT_ID      = 2025-237Q
CENTER_NAME    = EARTH
REF_FRAME      = TEME
TIME_SYSTEM    = UTC
MEAN_ELEMENT_THEORY = SGP/SGP4

EPOCH          = 2025-11-06T22:00:01.999584
MEAN_MOTION    = 15.74171349
ECCENTRICITY   = .00011558
INCLINATION    = 53.1601
RA_OF_ASC_NODE = 257.5770
ARG_OF_PERICENTER = 83.9245
MEAN_ANOMALY   = 336.0481

EPHEMERIS_TYPE = 0
CLASSIFICATION_TYPE = U
NORAD_CAT_ID   = 66128
ELEMENT_SET_NO = 999
REV_AT_EPOCH   = 372
BSTAR          = -.1937272E-2
MEAN_MOTION_DOT = -.275084E-2
MEAN_MOTION_DDOT = 0

CCSDS_OMM_VERS = 2.0
CREATION_DATE  = 
ORIGINATOR     = 

OBJECT_NAME    = STARLINK-35632
OBJECT_ID      = 2025-237R
CENTER_NAME    = EARTH
REF_FRAME      = TEME
TIME_SYSTEM    = UTC
MEAN_ELEMENT_THEORY = SGP/SGP4

EPOCH          = 2025-11-06T22:00:01.999584
MEAN_MOTION    = 15.74182285
ECCENTRICITY   = .00012543
INCLINATION    = 53.1600
RA_OF_ASC_NODE = 257.5730
ARG_OF_PERICENTER = 96.5873
MEAN_ANOMALY   = 325.2989

EPHEMERIS_TYPE = 0
CLASSIFICATION_TYPE = U
NORAD_CAT_ID   = 66129
ELEMENT_SET_NO = 999
REV_AT_EPOCH   = 372
BSTAR          = -.20580367E-2
MEAN_MOTION_DOT = -.291767E-2
MEAN_MOTION_DDOT = 0

CCSDS_OMM_VERS = 2.0
CREATION_DATE  = 
ORIGINATOR     = 

OBJECT_NAME    = STARLINK-35637
OBJECT_ID      = 2025-237S
CENTER_NAME    = EARTH
REF_FRAME      = TEME
TIME_SYSTEM    = UTC
MEAN_ELEMENT_THEORY = SGP/SGP4

EPOCH          = 2025-11-06T22:00:01.999584
MEAN_MOTION    = 15.74154720
ECCENTRICITY   = .00015648
INCLINATION    = 53.1601
RA_OF_ASC_NODE = 257.5684
ARG_OF_PERICENTER = 50.4288
MEAN_ANOMALY   = 13.3928

EPHEMERIS_TYPE = 0
CLASSIFICATION_TYPE = U
NORAD_CAT_ID   = 66130
ELEMENT_SET_NO = 999
REV_AT_EPOCH   = 372
BSTAR          = -.18364911E-2
MEAN_MOTION_DOT = -.261066E-2
MEAN_MOTION_DDOT = 0

CCSDS_OMM_VERS = 2.0
CREATION_DATE  = 
ORIGINATOR     = 

OBJECT_NAME    = STARLINK-35630
OBJECT_ID      = 2025-237T
CENTER_NAME    = EARTH
REF_FRAME      = TEME
TIME_SYSTEM    = UTC
MEAN_ELEMENT_THEORY = SGP/SGP4

EPOCH          = 2025-11-06T22:00:01.999584
MEAN_MOTION    = 15.74177099
ECCENTRICITY   = .00013632
INCLINATION    = 53.1600
RA_OF_ASC_NODE = 257.5645
ARG_OF_PERICENTER = 54.9724
MEAN_ANOMALY   = 10.7527

EPHEMERIS_TYPE = 0
CLASSIFICATION_TYPE = U
NORAD_CAT_ID   = 66131
ELEMENT_SET_NO = 999
REV_AT_EPOCH   = 372
BSTAR          = -.20127036E-2
MEAN_MOTION_DOT = -.285505E-2
MEAN_MOTION_DDOT = 0

CCSDS_OMM_VERS = 2.0
CREATION_DATE  = 
ORIGINATOR     = 

OBJECT_NAME    = STARLINK-34412
OBJECT_ID      = 2025-237U
CENTER_NAME    = EARTH
REF_FRAME      = TEME
TIME_SYSTEM    = UTC
MEAN_ELEMENT_THEORY = SGP/SGP4

EPOCH          = 2025-11-06T22:00:01.999584
MEAN_MOTION    = 15.74176248
ECCENTRICITY   = .00019739
INCLINATION    = 53.1599
RA_OF_ASC_NODE = 257.5610
ARG_OF_PERICENTER = 70.6346
MEAN_ANOMALY   = 357.0332

EPHEMERIS_TYPE = 0
CLASSIFICATION_TYPE = U
NORAD_CAT_ID   = 66132
ELEMENT_SET_NO = 999
REV_AT_EPOCH   = 363
BSTAR          = -.22090005E-2
MEAN_MOTION_DOT = -.312338E-2
MEAN_MOTION_DDOT = 0

CCSDS_OMM_VERS = 2.0
CREATION_DATE  = 
ORIGINATOR     = 

OBJECT_NAME    = STARLINK-35520
OBJECT_ID      = 2025-237V
CENTER_NAME    = EARTH
REF_FRAME      = TEME
TIME_SYSTEM    = UTC
MEAN_ELEMENT_THEORY = SGP/SGP4

EPOCH          = 2025-11-06T22:00:01.999584
MEAN_MOTION    = 15.74173767
ECCENTRICITY   = .00013536
INCLINATION    = 53.1600
RA_OF_ASC_NODE = 257.5564
ARG_OF_PERICENTER = 100.2197
MEAN_ANOMALY   = 329.3476

EPHEMERIS_TYPE = 0
CLASSIFICATION_TYPE = U
NORAD_CAT_ID   = 66133
ELEMENT_SET_NO = 999
REV_AT_EPOCH   = 372
BSTAR          = -.20177799E-2
MEAN_MOTION_DOT = -.286159E-2
MEAN_MOTION_DDOT = 0

CCSDS_OMM_VERS = 2.0
CREATION_DATE  = 
ORIGINATOR     = 

OBJECT_NAME    = STARLINK-35525
OBJECT_ID      = 2025-237W
CENTER_NAME    = EARTH
REF_FRAME      = TEME
TIME_SYSTEM    = UTC
MEAN_ELEMENT_THEORY = SGP/SGP4

EPOCH          = 2025-11-06T22:00:01.999584
MEAN_MOTION    = 15.74150366
ECCENTRICITY   = .00019628
INCLINATION    = 53.1602
RA_OF_ASC_NODE = 257.5525
ARG_OF_PERICENTER = 139.4379
MEAN_ANOMALY   = 292.0580

EPHEMERIS_TYPE = 0
CLASSIFICATION_TYPE = U
NORAD_CAT_ID   = 66134
ELEMENT_SET_NO = 999
REV_AT_EPOCH   = 372
BSTAR          = -.18293588E-2
MEAN_MOTION_DOT = -.260058E-2
MEAN_MOTION_DDOT = 0

CCSDS_OMM_VERS = 2.0
CREATION_DATE  = 
ORIGINATOR     = 

OBJECT_NAME    = STARLINK-34852
OBJECT_ID      = 2025-237X
CENTER_NAME    = EARTH
REF_FRAME      = TEME
TIME_SYSTEM    = UTC
MEAN_ELEMENT_THEORY = SGP/SGP4

EPOCH          = 2025-11-06T22:00:01.999584
MEAN_MOTION    = 15.74159337
ECCENTRICITY   = .00015124
INCLINATION    = 53.1602
RA_OF_ASC_NODE = 257.5488
ARG_OF_PERICENTER = 49.8181
MEAN_ANOMALY   = 23.5794

EPHEMERIS_TYPE = 0
CLASSIFICATION_TYPE = U
NORAD_CAT_ID   = 66135
ELEMENT_SET_NO = 999
REV_AT_EPOCH   = 368
BSTAR          = -.18494421E-2
MEAN_MOTION_DOT = -.262896E-2
MEAN_MOTION_DDOT = 0

CCSDS_OMM_VERS = 2.0
CREATION_DATE  = 
ORIGINATOR     = 

OBJECT_NAME    = STARLINK-35592
OBJECT_ID      = 2025-237Y
CENTER_NAME    = EARTH
REF_FRAME      = TEME
TIME_SYSTEM    = UTC
MEAN_ELEMENT_THEORY = SGP/SGP4

EPOCH          = 2025-11-06T22:00:01.999584
MEAN_MOTION    = 15.74175172
ECCENTRICITY   = .00012627
INCLINATION    = 53.1601
RA_OF_ASC_NODE = 257.5442
ARG_OF_PERICENTER = 100.5267
MEAN_ANOMALY   = 334.7863

EPHEMERIS_TYPE = 0
CLASSIFICATION_TYPE = U
NORAD_CAT_ID   = 66136
ELEMENT_SET_NO = 999
REV_AT_EPOCH   = 372
BSTAR          = -.19978824E-2
MEAN_MOTION_DOT = -.283446E-2
MEAN_MOTION_DDOT = 0

CCSDS_OMM_VERS = 2.0
CREATION_DATE  = 
ORIGINATOR     = 

OBJECT_NAME    = STARLINK-35576
OBJECT_ID      = 2025-237Z
CENTER_NAME    = EARTH
REF_FRAME      = TEME
TIME_SYSTEM    = UTC
MEAN_ELEMENT_THEORY = SGP/SGP4

EPOCH          = 2025-11-06T22:00:01.999584
MEAN_MOTION    = 15.74189583
ECCENTRICITY   = .000145
INCLINATION    = 53.1601
RA_OF_ASC_NODE = 257.5401
ARG_OF_PERICENTER = 110.6786
MEAN_ANOMALY   = 326.5405

EPHEMERIS_TYPE = 0
CLASSIFICATION_TYPE = U
NORAD_CAT_ID   = 66137
ELEMENT_SET_NO = 999
REV_AT_EPOCH   = 372
BSTAR          = -.21209531E-2
MEAN_MOTION_DOT = -.300468E-2
MEAN_MOTION_DDOT = 0

CCSDS_OMM_VERS = 2.0
CREATION_DATE  = 
ORIGINATOR     = 

OBJECT_NAME    = STARLINK-35623
OBJECT_ID      = 2025-237AA
CENTER_NAME    = EARTH
REF_FRAME      = TEME
TIME_SYSTEM    = UTC
MEAN_ELEMENT_THEORY = SGP/SGP4

EPOCH          = 2025-11-06T22:00:01.999584
MEAN_MOTION    = 15.74148137
ECCENTRICITY   = .00015408
INCLINATION    = 53.1602
RA_OF_ASC_NODE = 257.5367
ARG_OF_PERICENTER = 57.8940
MEAN_ANOMALY   = 21.2596

EPHEMERIS_TYPE = 0
CLASSIFICATION_TYPE = U
NORAD_CAT_ID   = 66138
ELEMENT_SET_NO = 999
REV_AT_EPOCH   = 372
BSTAR          = -.17449425E-2
MEAN_MOTION_DOT = -.24838E-2
MEAN_MOTION_DDOT = 0

